QIANFAN-81              
1 63167U 25046J   25248.87280723  .00000212  00000+0  30931-3 0  9991
2 63167  88.9855 329.9759 0015777  51.3819 308.8742 13.50972606 34273
QIANFAN-82              
1 63168U 25046K   25248.90566428  .00000212  00000+0  31000-3 0  9993
2 63168  88.9855 330.0159 0014189  59.5118 300.7432 13.50969542 34260
QIANFAN-83              
1 63169U 25046L   25248.91354788  .00000261  00000+0  32277-3 0  9990
2 63169  88.9855 329.9833 0015186  50.2473 310.0020 13.61946418 34285
QIANFAN-84              
1 63170U 25046M   25248.93435692  .00000215  00000+0  31393-3 0  9995
2 63170  88.9855 330.1460 0017014  54.7028 305.5711 13.50975662 34191
QIANFAN-85              
1 63171U 25046N   25248.93044784  .00000228  00000+0  33461-3 0  9996
2 63171  88.9855 330.0186 0014491  58.2705 301.9857 13.50970645 34268
QIANFAN-86              
1 63172U 25046P   25248.93866572  .00000221  00000+0  32279-3 0  9993
2 63172  88.9857 329.8776 0012527  63.3936 296.8497 13.50971192 34342
QIANFAN-87              
1 63173U 25046Q   25248.90983017  .00000204  00000+0  29676-3 0  9993
2 63173  88.9853 329.9958 0013075  58.4131 301.8295 13.50967499 34273
QIANFAN-88              
1 63174U 25046R   25248.92631297  .00000227  00000+0  33321-3 0  9993
2 63174  88.9855 329.9463 0013686  65.3252 294.9323 13.50975000 34301
